IRIDIUM 7               
1 24793U 97020B   25245.45676683  .00000704  00000+0  23569-3 0  9994
2 24793  86.4008 144.5671 0001918  91.4821 268.6596 14.35990212482984
IRIDIUM 5               
1 24795U 97020D   25245.50377941  .00010865  00000+0  88639-3 0  9995
2 24795  86.3862  48.0371 0106129 219.8297 139.5110 14.94942809497013
IRIDIUM 4               
1 24796U 97020E   25245.46141473  .00000711  00000+0  23401-3 0  9995
2 24796  86.3998 141.3937 0002004  85.0459 275.0967 14.36890700483568
IRIDIUM 914             
1 24836U 97030A   25245.45657215  .00000851  00000+0  25926-3 0  9995
2 24836  86.3993 149.7631 0001944  39.8065 320.3277 14.40932750618254
IRIDIUM 16              
1 24841U 97030F   25245.53251074  .00000804  00000+0  25567-3 0  9992
2 24841  86.4106 172.8118 0003226 128.2355 231.9134 14.38766262478123
IRIDIUM 911             
1 24842U 97030G   25245.53153790  .00001199  00000+0  31929-3 0  9996
2 24842  86.4530 171.4997 0013366 190.9592 169.1322 14.47720090486275
IRIDIUM 17              
1 24870U 97034B   25245.42808108  .00001042  00000+0  33918-3 0  9996
2 24870  86.3995 202.2797 0003736 101.5369 258.6249 14.37887255474681
IRIDIUM 920             
1 24871U 97034C   25245.34183760  .00000997  00000+0  30046-3 0  9995
2 24871  86.4042 181.3933 0011325 176.0375 184.0916 14.41594901477697
